CENTISPACE-1 OBJECT E   
1 68354U 26060E   26092.74924469  .00000054  00000+0  38770-4 0  9991
2 68354  54.9766 343.4508 0013210 326.5301  33.4863 14.75208725  1648
CENTISPACE-1 OBJECT F   
1 68355U 26060F   26091.52938487  .00000056  00000+0  38992-4 0  9990
2 68355  54.9764 348.4206 0013924 323.7943  36.2113 14.75237979  1462
CENTISPACE-1 OBJECT G   
1 68356U 26060G   26092.00314274  .00000051  00000+0  38325-4 0  9992
2 68356  54.9880 346.4927 0014242 325.6905  34.3173 14.75310904  1536
CENTISPACE-1 OBJECT H   
1 68357U 26060H   26090.51191146  .00002097  00000+0  33642-3 0  9996
2 68357  54.9825 352.5691 0014896 321.7973  38.1970 14.75426695  1317
CENTISPACE-1 OBJECT J   
1 68358U 26060J   26090.91843375  .00000091  00000+0  44083-4 0  9993
2 68358  54.9876 350.9118 0014725 324.9275  35.0754 14.75410591  1371
CENTISPACE-1 OBJECT K   
1 68359U 26060K   26091.73090155  .00000049  00000+0  37853-4 0  9995
2 68359  54.9775 347.5897 0015115 326.6312  33.3734 14.75493204  1495
RASSVET-3 1             
1 68360U 26061A   26092.79785496  .00055858 -49433-7  18684-3 0  9994
2 68360  82.2959  97.2868 0025817  37.6456 322.6616 15.89404754  1604
RASSVET-3 2             
1 68361U 26061B   26092.79923755  .00095004  19783-5  32708-3 0  9999
2 68361  82.2967  97.2887 0026816  37.0303 323.2812 15.88839915  1605
RASSVET-3 3             
1 68362U 26061C   26092.79908686  .00085328  13752-5  29365-3 0  9999
2 68362  82.2966  97.2882 0026662  36.8892 323.4206 15.88846599  1604
RASSVET-3 4             
1 68363U 26061D   26092.79894818  .00085368  13779-5  29353-3 0  9991
2 68363  82.2967  97.2883 0026691  36.7802 323.5294 15.88862363  1604
RASSVET-3 5             
1 68364U 26061E   26092.79883535  .00084521  13288-5  29034-3 0  9997
2 68364  82.2966  97.2878 0026632  36.8865 323.4231 15.88883700  1601
RASSVET-3 6             
1 68365U 26061F   26092.79855905  .00088110  15460-5  30113-3 0  9990
2 68365  82.2966  97.2875 0026484  36.9490 323.3598 15.88994463  1603
RASSVET-3 7             
1 68366U 26061G   26092.79864542  .00085522  13884-5  29349-3 0  9999
2 68366  82.2967  97.2879 0026398  37.0109 323.2976 15.88914635  1604
RASSVET-3 8             
1 68367U 26061H   26092.79871852  .00085561  13903-5  29390-3 0  9993
2 68367  82.2966  97.2875 0026398  36.9378 323.3704 15.88895595  1609
RASSVET-3 9             
1 68368U 26061J   26092.79799102  .00162158  80854-5  54498-3 0  9995
2 68368  82.2961  97.2863 0025853  37.1263 323.1790 15.89392822  1602
RASSVET-3 10            
1 68369U 26061K   26092.79843431  .00086110  14242-5  29513-3 0  9992
2 68369  82.2967  97.2874 0026304  36.8367 323.4704 15.88944901  1602
