[{"OBJECT_NAME":"CENTISPACE-1 OBJECT E","OBJECT_ID":"2026-060E","EPOCH":"2026-04-02T17:58:54.741216","MEAN_MOTION":14.75208725,"ECCENTRICITY":0.001321,"INCLINATION":54.9766,"RA_OF_ASC_NODE":343.4508,"ARG_OF_PERICENTER":326.5301,"MEAN_ANOMALY":33.4863,"EPHEMERIS_TYPE":0,"CLASSIFICATION_TYPE":"U","NORAD_CAT_ID":68354,"ELEMENT_SET_NO":999,"REV_AT_EPOCH":164,"BSTAR":3.877e-5,"MEAN_MOTION_DOT":5.4e-7,"MEAN_MOTION_DDOT":0},{"OBJECT_NAME":"CENTISPACE-1 OBJECT F","OBJECT_ID":"2026-060F","EPOCH":"2026-04-01T12:42:18.852768","MEAN_MOTION":14.75237979,"ECCENTRICITY":0.00139241,"INCLINATION":54.9764,"RA_OF_ASC_NODE":348.4206,"ARG_OF_PERICENTER":323.7943,"MEAN_ANOMALY":36.2113,"EPHEMERIS_TYPE":0,"CLASSIFICATION_TYPE":"U","NORAD_CAT_ID":68355,"ELEMENT_SET_NO":999,"REV_AT_EPOCH":146,"BSTAR":3.8992472e-5,"MEAN_MOTION_DOT":5.6e-7,"MEAN_MOTION_DDOT":0},{"OBJECT_NAME":"CENTISPACE-1 OBJECT G","OBJECT_ID":"2026-060G","EPOCH":"2026-04-02T00:04:31.532736","MEAN_MOTION":14.75310904,"ECCENTRICITY":0.00142424,"INCLINATION":54.988,"RA_OF_ASC_NODE":346.4927,"ARG_OF_PERICENTER":325.6905,"MEAN_ANOMALY":34.3173,"EPHEMERIS_TYPE":0,"CLASSIFICATION_TYPE":"U","NORAD_CAT_ID":68356,"ELEMENT_SET_NO":999,"REV_AT_EPOCH":153,"BSTAR":3.8325405e-5,"MEAN_MOTION_DOT":5.1e-7,"MEAN_MOTION_DDOT":0},{"OBJECT_NAME":"CENTISPACE-1 OBJECT H","OBJECT_ID":"2026-060H","EPOCH":"2026-03-31T12:17:09.150144","MEAN_MOTION":14.75426695,"ECCENTRICITY":0.0014896,"INCLINATION":54.9825,"RA_OF_ASC_NODE":352.5691,"ARG_OF_PERICENTER":321.7973,"MEAN_ANOMALY":38.197,"EPHEMERIS_TYPE":0,"CLASSIFICATION_TYPE":"U","NORAD_CAT_ID":68357,"ELEMENT_SET_NO":999,"REV_AT_EPOCH":131,"BSTAR":0.00033642377,"MEAN_MOTION_DOT":2.097e-5,"MEAN_MOTION_DDOT":0},{"OBJECT_NAME":"CENTISPACE-1 OBJECT J","OBJECT_ID":"2026-060J","EPOCH":"2026-03-31T22:02:32.676000","MEAN_MOTION":14.75410591,"ECCENTRICITY":0.00147259,"INCLINATION":54.9876,"RA_OF_ASC_NODE":350.9118,"ARG_OF_PERICENTER":324.9275,"MEAN_ANOMALY":35.0754,"EPHEMERIS_TYPE":0,"CLASSIFICATION_TYPE":"U","NORAD_CAT_ID":68358,"ELEMENT_SET_NO":999,"REV_AT_EPOCH":137,"BSTAR":4.4082868e-5,"MEAN_MOTION_DOT":9.1e-7,"MEAN_MOTION_DDOT":0},{"OBJECT_NAME":"CENTISPACE-1 OBJECT K","OBJECT_ID":"2026-060K","EPOCH":"2026-04-01T17:32:29.893920","MEAN_MOTION":14.75493204,"ECCENTRICITY":0.00151156,"INCLINATION":54.9775,"RA_OF_ASC_NODE":347.5897,"ARG_OF_PERICENTER":326.6312,"MEAN_ANOMALY":33.3734,"EPHEMERIS_TYPE":0,"CLASSIFICATION_TYPE":"U","NORAD_CAT_ID":68359,"ELEMENT_SET_NO":999,"REV_AT_EPOCH":149,"BSTAR":3.7852544e-5,"MEAN_MOTION_DOT":4.9e-7,"MEAN_MOTION_DDOT":0},{"OBJECT_NAME":"RASSVET-3 1","OBJECT_ID":"2026-061A","EPOCH":"2026-04-02T19:08:54.668544","MEAN_MOTION":15.89404754,"ECCENTRICITY":0.0025817,"INCLINATION":82.2959,"RA_OF_ASC_NODE":97.2868,"ARG_OF_PERICENTER":37.6456,"MEAN_ANOMALY":322.6616,"EPHEMERIS_TYPE":0,"CLASSIFICATION_TYPE":"U","NORAD_CAT_ID":68360,"ELEMENT_SET_NO":999,"REV_AT_EPOCH":160,"BSTAR":0.00018684,"MEAN_MOTION_DOT":0.00055858,"MEAN_MOTION_DDOT":-4.9433e-8},{"OBJECT_NAME":"RASSVET-3 2","OBJECT_ID":"2026-061B","EPOCH":"2026-04-02T19:10:54.124320","MEAN_MOTION":15.88839915,"ECCENTRICITY":0.0026816,"INCLINATION":82.2967,"RA_OF_ASC_NODE":97.2887,"ARG_OF_PERICENTER":37.0303,"MEAN_ANOMALY":323.2812,"EPHEMERIS_TYPE":0,"CLASSIFICATION_TYPE":"U","NORAD_CAT_ID":68361,"ELEMENT_SET_NO":999,"REV_AT_EPOCH":160,"BSTAR":0.00032708,"MEAN_MOTION_DOT":0.00095004,"MEAN_MOTION_DDOT":1.9783e-6},{"OBJECT_NAME":"RASSVET-3 3","OBJECT_ID":"2026-061C","EPOCH":"2026-04-02T19:10:41.104704","MEAN_MOTION":15.88846599,"ECCENTRICITY":0.0026662,"INCLINATION":82.2966,"RA_OF_ASC_NODE":97.2882,"ARG_OF_PERICENTER":36.8892,"MEAN_ANOMALY":323.4206,"EPHEMERIS_TYPE":0,"CLASSIFICATION_TYPE":"U","NORAD_CAT_ID":68362,"ELEMENT_SET_NO":999,"REV_AT_EPOCH":160,"BSTAR":0.00029365,"MEAN_MOTION_DOT":0.00085328,"MEAN_MOTION_DDOT":1.3752e-6},{"OBJECT_NAME":"RASSVET-3 4","OBJECT_ID":"2026-061D","EPOCH":"2026-04-02T19:10:29.122752","MEAN_MOTION":15.88862363,"ECCENTRICITY":0.0026691,"INCLINATION":82.2967,"RA_OF_ASC_NODE":97.2883,"ARG_OF_PERICENTER":36.7802,"MEAN_ANOMALY":323.5294,"EPHEMERIS_TYPE":0,"CLASSIFICATION_TYPE":"U","NORAD_CAT_ID":68363,"ELEMENT_SET_NO":999,"REV_AT_EPOCH":160,"BSTAR":0.00029353,"MEAN_MOTION_DOT":0.00085368,"MEAN_MOTION_DDOT":1.3779e-6},{"OBJECT_NAME":"RASSVET-3 5","OBJECT_ID":"2026-061E","EPOCH":"2026-04-02T19:10:19.374240","MEAN_MOTION":15.888837,"ECCENTRICITY":0.0026632,"INCLINATION":82.2966,"RA_OF_ASC_NODE":97.2878,"ARG_OF_PERICENTER":36.8865,"MEAN_ANOMALY":323.4231,"EPHEMERIS_TYPE":0,"CLASSIFICATION_TYPE":"U","NORAD_CAT_ID":68364,"ELEMENT_SET_NO":999,"REV_AT_EPOCH":160,"BSTAR":0.00029034,"MEAN_MOTION_DOT":0.00084521,"MEAN_MOTION_DDOT":1.3288e-6},{"OBJECT_NAME":"RASSVET-3 6","OBJECT_ID":"2026-061F","EPOCH":"2026-04-02T19:09:55.501920","MEAN_MOTION":15.88994463,"ECCENTRICITY":0.0026484,"INCLINATION":82.2966,"RA_OF_ASC_NODE":97.2875,"ARG_OF_PERICENTER":36.949,"MEAN_ANOMALY":323.3598,"EPHEMERIS_TYPE":0,"CLASSIFICATION_TYPE":"U","NORAD_CAT_ID":68365,"ELEMENT_SET_NO":999,"REV_AT_EPOCH":160,"BSTAR":0.00030113,"MEAN_MOTION_DOT":0.0008811,"MEAN_MOTION_DDOT":1.546e-6},{"OBJECT_NAME":"RASSVET-3 7","OBJECT_ID":"2026-061G","EPOCH":"2026-04-02T19:10:02.964288","MEAN_MOTION":15.88914635,"ECCENTRICITY":0.0026398,"INCLINATION":82.2967,"RA_OF_ASC_NODE":97.2879,"ARG_OF_PERICENTER":37.0109,"MEAN_ANOMALY":323.2976,"EPHEMERIS_TYPE":0,"CLASSIFICATION_TYPE":"U","NORAD_CAT_ID":68366,"ELEMENT_SET_NO":999,"REV_AT_EPOCH":160,"BSTAR":0.00029349,"MEAN_MOTION_DOT":0.00085522,"MEAN_MOTION_DDOT":1.3884e-6},{"OBJECT_NAME":"RASSVET-3 8","OBJECT_ID":"2026-061H","EPOCH":"2026-04-02T19:10:09.280128","MEAN_MOTION":15.88895595,"ECCENTRICITY":0.0026398,"INCLINATION":82.2966,"RA_OF_ASC_NODE":97.2875,"ARG_OF_PERICENTER":36.9378,"MEAN_ANOMALY":323.3704,"EPHEMERIS_TYPE":0,"CLASSIFICATION_TYPE":"U","NORAD_CAT_ID":68367,"ELEMENT_SET_NO":999,"REV_AT_EPOCH":160,"BSTAR":0.0002939,"MEAN_MOTION_DOT":0.00085561,"MEAN_MOTION_DDOT":1.3903e-6},{"OBJECT_NAME":"RASSVET-3 9","OBJECT_ID":"2026-061J","EPOCH":"2026-04-02T19:09:06.424128","MEAN_MOTION":15.89392822,"ECCENTRICITY":0.0025853,"INCLINATION":82.2961,"RA_OF_ASC_NODE":97.2863,"ARG_OF_PERICENTER":37.1263,"MEAN_ANOMALY":323.179,"EPHEMERIS_TYPE":0,"CLASSIFICATION_TYPE":"U","NORAD_CAT_ID":68368,"ELEMENT_SET_NO":999,"REV_AT_EPOCH":160,"BSTAR":0.00054498,"MEAN_MOTION_DOT":0.00162158,"MEAN_MOTION_DDOT":8.0854e-6},{"OBJECT_NAME":"RASSVET-3 10","OBJECT_ID":"2026-061K","EPOCH":"2026-04-02T19:09:44.724384","MEAN_MOTION":15.88944901,"ECCENTRICITY":0.0026304,"INCLINATION":82.2967,"RA_OF_ASC_NODE":97.2874,"ARG_OF_PERICENTER":36.8367,"MEAN_ANOMALY":323.4704,"EPHEMERIS_TYPE":0,"CLASSIFICATION_TYPE":"U","NORAD_CAT_ID":68369,"ELEMENT_SET_NO":999,"REV_AT_EPOCH":160,"BSTAR":0.00029513,"MEAN_MOTION_DOT":0.0008611,"MEAN_MOTION_DDOT":1.4242e-6}]
